TIANMU-1 08             
1 57400U 23101B   26066.00237819  .00000346  00000+0  14775-4 0  9993
2 57400  97.2717 118.7901 0006380 134.2174 225.9592 15.29204229146020
STARLINK-33964          
1 64118U 25110Y   26068.29504087  .00030038  00000+0  10226-2 0  9992
2 64118  53.1608  28.4792 0001047  79.4567 280.6551 15.30188737 45826
